start=new Date('2023-01-09T00:00:00.000Z').valueOf();
sats=[{"OBJECT_NAME":"STARLINK-3990","GP_ID":"222466713","FILE":"3736235","BSTAR":"0.00002133600000","ECCENTRICITY":"0.00027150","PERIOD":"95.439","LAUNCH_DATE":"2022-05-14","TLE_LINE2":"2 52626  53.2148  60.5857 0002715  26.0754 334.0374 15.08812960 36403","CLASSIFICATION_TYPE":"U","MEAN_ELEMENT_THEORY":"SGP4","DECAY_DATE":null,"SEMIMAJOR_AXIS":"6917.963","RCS_SIZE":"LARGE","RA_OF_ASC_NODE":"60.5857","MEAN_MOTION_DDOT":"0.0000000000000","CENTER_NAME":"EARTH","REV_AT_EPOCH":"3640","INCLINATION":"53.2148","EPOCH":"2023-01-08T06:03:16.356960","MEAN_ANOMALY":"334.0374","EPHEMERIS_TYPE":"0","ELEMENT_SET_NO":"999","OBJECT_ID":"2022-052AE","TLE_LINE1":"1 52626U 22052AE  23008.25227265  .00000051  00000-0  21336-4 0  9991","SITE":"AFETR","ARG_OF_PERICENTER":"26.0754","OBJECT_TYPE":"PAYLOAD","MEAN_MOTION_DOT":"0.00000051","NORAD_CAT_ID":"52626","APOAPSIS":"541.706","MEAN_MOTION":"15.08812960","COUNTRY_CODE":"US","REF_FRAME":"TEME","TIME_SYSTEM":"UTC","PERIAPSIS":"537.950"},{"ECCENTRICITY":"0.00033140","PERIOD":"95.437","TLE_LINE2":"2 52627  53.2161  58.0021 0003314  21.2423 338.8706 15.08849835 36503","LAUNCH_DATE":"2022-05-14","GP_ID":"222498945","FILE":"3736460","OBJECT_NAME":"STARLINK-3992","BSTAR":"0.00048581000000","RA_OF_ASC_NODE":"58.0021","RCS_SIZE":"LARGE","MEAN_MOTION_DDOT":"0.0000000000000","CENTER_NAME":"EARTH","CLASSIFICATION_TYPE":"U","MEAN_ELEMENT_THEORY":"SGP4","DECAY_DATE":null,"SEMIMAJOR_AXIS":"6917.850","EPOCH":"2023-01-08T19:49:56.238240","REV_AT_EPOCH":"3650","INCLINATION":"53.2161","ELEMENT_SET_NO":"999","OBJECT_ID":"2022-052AF","TLE_LINE1":"1 52627U 22052AF  23008.82634535  .00007454  00000-0  48581-3 0  9991","MEAN_ANOMALY":"338.8706","EPHEMERIS_TYPE":"0","ARG_OF_PERICENTER":"21.2423","MEAN_MOTION_DOT":"0.00007454","OBJECT_TYPE":"PAYLOAD","NORAD_CAT_ID":"52627","APOAPSIS":"542.008","SITE":"AFETR","MEAN_MOTION":"15.08849835","COUNTRY_CODE":"US","TIME_SYSTEM":"UTC","PERIAPSIS":"537.423","REF_FRAME":"TEME"},{"PERIOD":"95.437","ECCENTRICITY":"0.00025890","LAUNCH_DATE":"2022-05-14","TLE_LINE2":"2 52628  53.2165  72.7909 0002589  25.6321 334.4799 15.08842118 36291","FILE":"3736460","GP_ID":"222499195","OBJECT_NAME":"STARLINK-4001","BSTAR":"0.00039621000000","RA_OF_ASC_NODE":"72.7909","RCS_SIZE":"LARGE","CENTER_NAME":"EARTH","MEAN_MOTION_DDOT":"0.0000000000000","SEMIMAJOR_AXIS":"6917.874","DECAY_DATE":null,"CLASSIFICATION_TYPE":"U","MEAN_ELEMENT_THEORY":"SGP4","EPOCH":"2023-01-08T20:59:29.908608","REV_AT_EPOCH":"3629","INCLINATION":"53.2165","TLE_LINE1":"1 52628U 22052AG  23008.87465172  .00006024  00000-0  39621-3 0  9993","OBJECT_ID":"2022-052AG","ELEMENT_SET_NO":"999","EPHEMERIS_TYPE":"0","MEAN_ANOMALY":"334.4799","NORAD_CAT_ID":"52628","APOAPSIS":"541.530","ARG_OF_PERICENTER":"25.6321","MEAN_MOTION_DOT":"0.00006024","OBJECT_TYPE":"PAYLOAD","SITE":"AFETR","MEAN_MOTION":"15.08842118","COUNTRY_CODE":"US","TIME_SYSTEM":"UTC","PERIAPSIS":"537.948","REF_FRAME":"TEME"},{"OBJECT_TYPE":"PAYLOAD","MEAN_MOTION_DOT":"0.00004091","ARG_OF_PERICENTER":"22.6701","APOAPSIS":"542.001","NORAD_CAT_ID":"52629","SITE":"AFETR","MEAN_MOTION":"15.08836515","COUNTRY_CODE":"US","PERIAPSIS":"537.511","TIME_SYSTEM":"UTC","REF_FRAME":"TEME","TLE_LINE2":"2 52629  53.2174  58.0233 0003245  22.6701 337.4434 15.08836515 36493","LAUNCH_DATE":"2022-05-14","ECCENTRICITY":"0.00032450","PERIOD":"95.438","BSTAR":"0.00027505000000","GP_ID":"222499447","OBJECT_NAME":"STARLINK-4022","FILE":"3736460","MEAN_MOTION_DDOT":"0.0000000000000","CENTER_NAME":"EARTH","RCS_SIZE":"LARGE","RA_OF_ASC_NODE":"58.0233","CLASSIFICATION_TYPE":"U","MEAN_ELEMENT_THEORY":"SGP4","DECAY_DATE":null,"SEMIMAJOR_AXIS":"6917.891","EPOCH":"2023-01-08T19:44:36.629088","INCLINATION":"53.2174","REV_AT_EPOCH":"3649","ELEMENT_SET_NO":"999","OBJECT_ID":"2022-052AH","TLE_LINE1":"1 52629U 22052AH  23008.82264617  .00004091  00000-0  27505-3 0  9990","MEAN_ANOMALY":"337.4434","EPHEMERIS_TYPE":"0"},{"EPHEMERIS_TYPE":"0","MEAN_ANOMALY":"310.4621","TLE_LINE1":"1 52630U 22052AJ  23008.83372999  .00006773  00000-0  44320-3 0  9999","ELEMENT_SET_NO":"999","OBJECT_ID":"2022-052AJ","REV_AT_EPOCH":"3649","INCLINATION":"53.2146","EPOCH":"2023-01-08T20:00:34.271136","DECAY_DATE":null,"SEMIMAJOR_AXIS":"6917.874","MEAN_ELEMENT_THEORY":"SGP4","CLASSIFICATION_TYPE":"U","RA_OF_ASC_NODE":"57.9738","RCS_SIZE":"LARGE","MEAN_MOTION_DDOT":"0.0000000000000","CENTER_NAME":"EARTH","OBJECT_NAME":"STARLINK-3989","GP_ID":"222499698","FILE":"3736460","BSTAR":"0.00044320000000","PERIOD":"95.437","ECCENTRICITY":"0.00027620","TLE_LINE2":"2 52630  53.2146  57.9738 0002762  49.6612 310.4621 15.08842213 36496","LAUNCH_DATE":"2022-05-14","REF_FRAME":"TEME","TIME_SYSTEM":"UTC","PERIAPSIS":"537.828","COUNTRY_CODE":"US","MEAN_MOTION":"15.08842213","SITE":"AFETR","NORAD_CAT_ID":"52630","APOAPSIS":"541.649","ARG_OF_PERICENTER":"49.6612","OBJECT_TYPE":"PAYLOAD","MEAN_MOTION_DOT":"0.00006773"},{"BSTAR":"0.00065069000000","FILE":"3736235","GP_ID":"222467463","OBJECT_NAME":"STARLINK-3794","TLE_LINE2":"2 52631  53.2175  59.8282 0003154  20.7389 339.3731 15.08843680 36447","LAUNCH_DATE":"2022-05-14","PERIOD":"95.437","ECCENTRICITY":"0.00031540","SEMIMAJOR_AXIS":"6917.869","DECAY_DATE":null,"CLASSIFICATION_TYPE":"U","MEAN_ELEMENT_THEORY":"SGP4","MEAN_MOTION_DDOT":"0.0000000000000","CENTER_NAME":"EARTH","RCS_SIZE":"LARGE","RA_OF_ASC_NODE":"59.8282","INCLINATION":"53.2175","REV_AT_EPOCH":"3644","EPOCH":"2023-01-08T10:07:01.850880","EPHEMERIS_TYPE":"0","MEAN_ANOMALY":"339.3731","TLE_LINE1":"1 52631U 22052AK  23008.42154920  .00010084  00000-0  65069-3 0  9990","ELEMENT_SET_NO":"999","OBJECT_ID":"2022-052AK","SITE":"AFETR","APOAPSIS":"541.916","NORAD_CAT_ID":"52631","MEAN_MOTION_DOT":"0.00010084","OBJECT_TYPE":"PAYLOAD","ARG_OF_PERICENTER":"20.7389","MEAN_MOTION":"15.08843680","COUNTRY_CODE":"US","REF_FRAME":"TEME","PERIAPSIS":"537.552","TIME_SYSTEM":"UTC"},{"MEAN_ANOMALY":"339.7302","EPHEMERIS_TYPE":"0","OBJECT_ID":"2022-052AL","ELEMENT_SET_NO":"999","TLE_LINE1":"1 52632U 22052AL  23008.83002626  .00009616  00000-0  62125-3 0  9990","REV_AT_EPOCH":"3650","INCLINATION":"53.2187","EPOCH":"2023-01-08T19:55:14.268864","CLASSIFICATION_TYPE":"U","MEAN_ELEMENT_THEORY":"SGP4","SEMIMAJOR_AXIS":"6917.846","DECAY_DATE":null,"RCS_SIZE":"LARGE","RA_OF_ASC_NODE":"57.9842","MEAN_MOTION_DDOT":"0.0000000000000","CENTER_NAME":"EARTH","GP_ID":"222498696","OBJECT_NAME":"STARLINK-3995","FILE":"3736460","BSTAR":"0.00062125000000","PERIOD":"95.437","ECCENTRICITY":"0.00033970","TLE_LINE2":"2 52632  53.2187  57.9842 0003397  20.3825 339.7302 15.08851388 36501","LAUNCH_DATE":"2022-05-14","REF_FRAME":"TEME","TIME_SYSTEM":"UTC","PERIAPSIS":"537.361","COUNTRY_CODE":"US","MEAN_MOTION":"15.08851388","SITE":"AFETR","ARG_OF_PERICENTER":"20.3825","MEAN_MOTION_DOT":"0.00009616","OBJECT_TYPE":"PAYLOAD","NORAD_CAT_ID":"52632","APOAPSIS":"542.061"},{"MEAN_ANOMALY":"339.1016","EPHEMERIS_TYPE":"0","ELEMENT_SET_NO":"999","OBJECT_ID":"2022-052AM","TLE_LINE1":"1 52633U 22052AM  23008.54298597  .00012653  00000-0  81125-3 0  9999","REV_AT_EPOCH":"3646","INCLINATION":"53.2173","EPOCH":"2023-01-08T13:01:53.987808","CLASSIFICATION_TYPE":"U","MEAN_ELEMENT_THEORY":"SGP4","SEMIMAJOR_AXIS":"6917.830","DECAY_DATE":null,"RCS_SIZE":"LARGE","RA_OF_ASC_NODE":"59.2753","MEAN_MOTION_DDOT":"0.0000000000000","CENTER_NAME":"EARTH","GP_ID":"222468465","FILE":"3736235","OBJECT_NAME":"STARLINK-3994","BSTAR":"0.00081125000000","PERIOD":"95.437","ECCENTRICITY":"0.00026410","TLE_LINE2":"2 52633  53.2173  59.2753 0002641  21.0084 339.1016 15.08856435 36468","LAUNCH_DATE":"2022-05-14","REF_FRAME":"TEME","TIME_SYSTEM":"UTC","PERIAPSIS":"537.868","COUNTRY_CODE":"US","MEAN_MOTION":"15.08856435","SITE":"AFETR","ARG_OF_PERICENTER":"21.0084","OBJECT_TYPE":"PAYLOAD","MEAN_MOTION_DOT":"0.00012653","NORAD_CAT_ID":"52633","APOAPSIS":"541.522"},{"PERIAPSIS":"537.732","TIME_SYSTEM":"UTC","REF_FRAME":"TEME","COUNTRY_CODE":"US","MEAN_MOTION":"15.08847587","APOAPSIS":"541.712","NORAD_CAT_ID":"52634","MEAN_MOTION_DOT":"0.00011440","OBJECT_TYPE":"PAYLOAD","ARG_OF_PERICENTER":"22.0151","SITE":"AFETR","TLE_LINE1":"1 52634U 22052AN  23008.81994373  .00011440  00000-0  73554-3 0  9995","OBJECT_ID":"2022-052AN","ELEMENT_SET_NO":"999","EPHEMERIS_TYPE":"0","MEAN_ANOMALY":"338.0964","EPOCH":"2023-01-08T19:40:43.138272","INCLINATION":"53.2168","REV_AT_EPOCH":"3649","MEAN_MOTION_DDOT":"0.0000000000000","CENTER_NAME":"EARTH","RCS_SIZE":"LARGE","RA_OF_ASC_NODE":"58.0312","SEMIMAJOR_AXIS":"6917.857","DECAY_DATE":null,"CLASSIFICATION_TYPE":"U","MEAN_ELEMENT_THEORY":"SGP4","TLE_LINE2":"2 52634  53.2168  58.0312 0002877  22.0151 338.0964 15.08847587 36499","LAUNCH_DATE":"2022-05-14","ECCENTRICITY":"0.00028770","PERIOD":"95.437","BSTAR":"0.00073554000000","GP_ID":"222500198","FILE":"3736460","OBJECT_NAME":"STARLINK-3974"},{"EPOCH":"2023-01-08T14:12:07.057440","REV_AT_EPOCH":"3660","INCLINATION":"53.2172","TLE_LINE1":"1 52635U 22052AP  23008.59174835  .00017423  00000-0  11096-2 0  9993","ELEMENT_SET_NO":"999","OBJECT_ID":"2022-052AP","EPHEMERIS_TYPE":"0","MEAN_ANOMALY":"337.5610","PERIOD":"95.437","ECCENTRICITY":"0.00030200","TLE_LINE2":"2 52635  53.2172  49.0435 0003020  22.5515 337.5610 15.08855078 36600","LAUNCH_DATE":"2022-05-14","FILE":"3736460","GP_ID":"222498946","OBJECT_NAME":"STARLINK-3978","BSTAR":"0.00110960000000","RCS_SIZE":"LARGE","RA_OF_ASC_NODE":"49.0435","MEAN_MOTION_DDOT":"0.0000000000000","CENTER_NAME":"EARTH","DECAY_DATE":null,"SEMIMAJOR_AXIS":"6917.834","CLASSIFICATION_TYPE":"U","MEAN_ELEMENT_THEORY":"SGP4","COUNTRY_CODE":"US","TIME_SYSTEM":"UTC","PERIAPSIS":"537.610","REF_FRAME":"TEME","NORAD_CAT_ID":"52635","APOAPSIS":"541.788","ARG_OF_PERICENTER":"22.5515","OBJECT_TYPE":"PAYLOAD","MEAN_MOTION_DOT":"0.00017423","SITE":"AFETR","MEAN_MOTION":"15.08855078"}];
